GLOBALSTAR M094         
1 39074U 13005C   25363.20711556 -.00000096  00000+0  42392-4 0  9997
2 39074  51.9980 308.3401 0000645  32.7697 327.3210 12.62265489597009
GLOBALSTAR M096         
1 39075U 13005D   25362.74502507 -.00000088  00000+0  86262-4 0  9995
2 39075  52.0094 358.4109 0000227  22.1519 337.9357 12.62269615595867
GLOBALSTAR M078         
1 39076U 13005E   25362.40225958 -.00000205  00000+0 -56715-3 0  9992
2 39076  51.9883  83.7022 0000638 207.2670 152.8163 12.62270799594441
GLOBALSTAR M095         
1 39077U 13005F   25363.22040555 -.00000100  00000+0  19034-4 0  9999
2 39077  52.0094  78.5738 0000191 150.7838 209.3040 12.62267367594401
GLOBALSTAR M087         
1 52888U 22064A   25363.07513172 -.00000079  00000+0  13765-3 0  9991
2 52888  51.9970 220.3521 0000940  65.8612 294.2353 12.62262047169657
